EUTELSAT QUANTUM        
1 49056U 21069B   25240.62584502  .00000000  00000+0  00000+0 0  9995
2 49056   0.0163  99.6597 0002018  74.1612  76.2672  1.00273534 14991
EUTELSAT KONNECT VHTS   
1 53765U 22110A   25240.40600397  .00000018  00000+0  00000+0 0  9991
2 53765   0.0544 104.6560 0002805  37.5453 343.5479  1.00270372  3892
EUTELSAT HOTBIRD 13F    
1 54048U 22134A   25240.53029078  .00000089  00000+0  00000+0 0  9995
2 54048   0.0519 295.9558 0002061  69.0178 175.9207  1.00272006 10449
EUTELSAT HOTBIRD 13G    
1 54225U 22146A   25240.53029078  .00000089  00000+0  00000+0 0  9995
2 54225   0.0486 231.3770 0001970 304.4908   5.0159  1.00272412  4537
EUTELSAT 10B            
1 54259U 22157A   25240.39489049  .00000070  00000+0  00000+0 0  9996
2 54259   0.0541 102.5843 0001458 354.3871  32.0418  1.00274109 10080
EUTELSAT 36D            
1 59346U 24059A   25240.53488413  .00000157  00000+0  00000+0 0  9997
2 59346   0.0036 207.9468 0000301 272.3758  85.0879  1.00271389  5218
